JY1SAT (JO-97)          
1 43803U 18099AX  26068.68634132  .00017774  00000+0  60804-3 0  9996
2 43803  97.4249 131.3625 0004723 256.6795 103.3919 15.30302628398390
STARLINK-35861          
1 66355U 25254H   26068.76237742  .00028465  00000+0  96962-3 0  9992
2 66355  53.1583 232.3413 0001061 104.1985 255.9133 15.30195905 18988
